H1 CPF  1  DGF 2022 08 29 11  7411 larets     NONE      
H2   304206 5557    27944 2022 08 29 00 00 00 2022 09 05 00 00 00    30 1 1  0 0 0
H5  0.0650
H9
10 0 59825  28800.000000  0       -324758.489      -5782755.946       4018290.417
10 0 59825  28830.000000  0       -369048.992      -5650016.439       4198682.392
10 0 59825  28860.000000  0       -412369.929      -5511331.815       4374767.284
10 0 59825  28890.000000  0       -454651.528      -5366848.080       4546364.779
10 0 59825  28920.000000  0       -495825.740      -5216717.472       4713299.229
10 0 59825  28950.000000  0       -535826.331      -5061098.288       4875399.826
10 0 59825  28980.000000  0       -574588.977      -4900154.711       5032500.784
10 0 59825  29010.000000  0       -612051.356      -4734056.631       5184441.506
10 0 59825  29040.000000  0       -648153.236      -4562979.450       5331066.752
10 0 59825  29070.000000  0       -682836.561      -4387103.886       5472226.795
10 0 59825  29100.000000  0       -716045.530      -4206615.775       5607777.576
10 0 59825  29130.000000  0       -747726.678      -4021705.858       5737580.848
10 0 59825  29160.000000  0       -777828.950      -3832569.568       5861504.309
10 0 59825  29190.000000  0       -806303.771      -3639406.818       5979421.734
10 0 59825  29220.000000  0       -833105.114      -3442421.773       6091213.097
10 0 59825  29250.000000  0       -858189.563      -3241822.634       6196764.689
10 0 59825  29280.000000  0       -881516.376      -3037821.406       6295969.218
10 0 59825  29310.000000  0       -903047.535      -2830633.672       6388725.922
10 0 59825  29340.000000  0       -922747.806      -2620478.360       6474940.659
10 0 59825  29370.000000  0       -940584.782      -2407577.508       6554526.001
10 0 59825  29400.000000  0       -956528.929      -2192156.027       6627401.321
10 0 59825  29430.000000  0       -970553.628      -1974441.454       6693492.867
10 0 59825  29460.000000  0       -982635.211      -1754663.711       6752733.837
10 0 59825  29490.000000  0       -992752.995      -1533054.857       6805064.440
10 0 59825  29520.000000  0      -1000889.311      -1309848.838       6850431.953
10 0 59825  29550.000000  0      -1007029.533      -1085281.233       6888790.772
10 0 59825  29580.000000  0      -1011162.092       -859589.007       6920102.449
10 0 59825  29610.000000  0      -1013278.502       -633010.253       6944335.726
10 0 59825  29640.000000  0      -1013373.362       -405783.945       6961466.566
10 0 59825  29670.000000  0      -1011444.373       -178149.684       6971478.171
10 0 59825  29700.000000  0      -1007492.333         49652.562       6974360.998
10 0 59825  29730.000000  0      -1001521.143        277382.706       6970112.769
10 0 59825  29760.000000  0       -993537.801        504800.805       6958738.464
10 0 59825  29790.000000  0       -983552.387        731667.309       6940250.317
10 0 59825  29820.000000  0       -971578.057        957743.314       6914667.800
10 0 59825  29850.000000  0       -957631.022       1182790.817       6882017.601
10 0 59825  29880.000000  0       -941730.526       1406572.966       6842333.599
10 0 59825  29910.000000  0       -923898.822       1628854.309       6795656.824
10 0 59825  29940.000000  0       -904161.143       1849401.050       6742035.419
10 0 59825  29970.000000  0       -882545.668       2067981.288       6681524.586
10 0 59825  30000.000000  0       -859083.480       2284365.266       6614186.531
10 0 59825  30030.000000  0       -833808.533       2498325.610       6540090.405
10 0 59825  30060.000000  0       -806757.599       2709637.572       6459312.233
10 0 59825  30090.000000  0       -777970.227       2918079.270       6371934.841
10 0 59825  30120.000000  0       -747488.683       3123431.926       6278047.769
10 0 59825  30150.000000  0       -715357.899       3325480.094       6177747.180
10 0 59825  30180.000000  0       -681625.408       3524011.891       6071135.765
10 0 59825  30210.000000  0       -646341.282       3718819.220       5958322.637
10 0 59825  30240.000000  0       -609558.066       3909697.991       5839423.226
10 0 59825  30270.000000  0       -571330.700       4096448.338       5714559.162
10 0 59825  30300.000000  0       -531716.454       4278874.832       5583858.154
10 0 59825  30330.000000  0       -490774.846       4456786.690       5447453.867
10 0 59825  30360.000000  0       -448567.558       4629997.985       5305485.787
10 0 59825  30390.000000  0       -405158.362       4798327.846       5158099.079
10 0 59825  30420.000000  0       -360613.021       4961600.657       5005444.439
10 0 59825  30450.000000  0       -314999.208       5119646.241       4847677.938
10 0 59825  30480.000000  0       -268386.403       5272300.047       4684960.856
10 0 59825  30510.000000  0       -220845.804       5419403.315       4517459.520
10 0 59825  30540.000000  0       -172450.227       5560803.245       4345345.134
10 0 59825  30570.000000  0       -123274.002       5696353.152       4168793.609
10 0 59825  30600.000000  0        -73392.880       5825912.628       3987985.400
10 0 59825  30630.000000  0        -22883.923       5949347.699       3803105.322
10 0 59825  30660.000000  0         28174.598       6066530.985       3614342.362
10 0 59825  30690.000000  0         79703.315       6177341.837       3421889.487
10 0 59825  30720.000000  0        131621.870       6281666.480       3225943.434
10 0 59825  30750.000000  0        183849.037       6379398.138       3026704.497
10 0 59825  30780.000000  0        236302.836       6470437.139       2824376.312
10 0 59825  30810.000000  0        288900.649       6554691.010       2619165.641
10 0 59825  30840.000000  0        341559.338       6632074.570       2411282.171
10 0 59825  30870.000000  0        394195.357       6702510.026       2200938.295
10 0 59825  30900.000000  0        446724.869       6765927.056       1988348.892
10 0 59825  30930.000000  0        499063.871       6822262.886       1773731.094
10 0 59825  30960.000000  0        551128.312       6871462.344       1557304.063
10 0 59825  30990.000000  0        602834.211       6913477.918       1339288.762
10 0 59825  31020.000000  0        654097.780       6948269.801       1119907.727
10 0 59825  31050.000000  0        704835.544       6975805.931        899384.834
10 0 59825  31080.000000  0        754964.460       6996062.018        677945.063
10 0 59825  31110.000000  0        804402.036       7009021.565        455814.265
10 0 59825  31140.000000  0        853066.452       7014675.880        233218.922
10 0 59825  31170.000000  0        900876.674       7013024.068         10385.914
10 0 59825  31200.000000  0        947752.572       7004073.030       -212457.723
10 0 59825  31230.000000  0        993615.035       6987837.441       -435085.024
10 0 59825  31260.000000  0       1038386.084       6964339.728       -657269.336
10 0 59825  31290.000000  0       1081988.986       6933610.035       -878784.550
10 0 59825  31320.000000  0       1124348.359       6895686.179      -1099405.338
10 0 59825  31350.000000  0       1165390.289       6850613.599      -1318907.379
10 0 59825  31380.000000  0       1205042.431       6798445.300      -1537067.596
10 0 59825  31410.000000  0       1243234.116       6739241.777      -1753664.382
10 0 59825  31440.000000  0       1279896.454       6673070.948      -1968477.831
10 0 59825  31470.000000  0       1314962.435       6600008.060      -2181289.958
10 0 59825  31500.000000  0       1348367.027       6520135.603      -2391884.923
10 0 59825  31530.000000  0       1380047.270       6433543.202      -2600049.255
10 0 59825  31560.000000  0       1409942.371       6340327.517      -2805572.061
10 0 59825  31590.000000  0       1437993.792       6240592.118      -3008245.246
10 0 59825  31620.000000  0       1464145.339       6134447.364      -3207863.718
10 0 59825  31650.000000  0       1488343.246       6022010.275      -3404225.593
10 0 59825  31680.000000  0       1510536.253       5903404.390      -3597132.403
10 0 59825  31710.000000  0       1530675.688       5778759.625      -3786389.286
10 0 59825  31740.000000  0       1548715.537       5648212.119      -3971805.182
10 0 59825  31770.000000  0       1564612.519       5511904.077      -4153193.022
10 0 59825  31800.000000  0       1578326.151       5369983.605      -4330369.908
10 0 59825  31830.000000  0       1589818.808       5222604.544      -4503157.293
10 0 59825  31860.000000  0       1599055.790       5069926.289      -4671381.151
10 0 59825  31890.000000  0       1606005.371       4912113.618      -4834872.145
10 0 59825  31920.000000  0       1610638.852       4749336.500      -4993465.789
10 0 59825  31950.000000  0       1612930.614       4581769.911      -5147002.605
10 0 59825  31980.000000  0       1612858.159       4409593.642      -5295328.272
10 0 59825  32010.000000  0       1610402.148       4232992.103      -5438293.778
10 0 59825  32040.000000  0       1605546.447       4052154.119      -5575755.557
10 0 59825  32070.000000  0       1598278.148       3867272.726      -5707575.631
10 0 59825  32100.000000  0       1588587.608       3678544.957      -5833621.733
10 0 59825  32130.000000  0       1576468.463       3486171.632      -5953767.430
10 0 59825  32160.000000  0       1561917.656       3290357.140      -6067892.241
10 0 59825  32190.000000  0       1544935.449       3091309.227      -6175881.745
10 0 59825  32220.000000  0       1525525.433       2889238.771      -6277627.687
10 0 59825  32250.000000  0       1503694.543       2684359.559      -6373028.077
10 0 59825  32280.000000  0       1479453.054       2476888.070      -6461987.277
10 0 59825  32310.000000  0       1452814.590       2267043.245      -6544416.095
10 0 59825  32340.000000  0       1423796.113       2055046.263      -6620231.863
10 0 59825  32370.000000  0       1392417.923       1841120.314      -6689358.516
99
